NORAD_CAT_ID,OBJECT_NAME,OBJECT_TYPE,EPOCH,MEAN_MOTION,ECCENTRICITY,INCLINATION,RA_OF_ASC_NODE,ARG_OF_PERICENTER,MEAN_ANOMALY,BSTAR,MEAN_MOTION_DOT,MEAN_MOTION_DDOT,TLE_LINE0,TLE_LINE1,TLE_LINE2,SEMIMAJOR_AXIS,PERIOD,APOGEE,PERIGEE,DECAYED
53926.0,STARLINK-5014,PAYLOAD,2024-02-20 17:50:58,15.08840349,0.0002114,53.2192,66.5663,99.4009,260.7222,-4.0328e-05,-9.3e-06,0.0,0 STARLINK-5014,1 53926U 22119AS  24051.74373822 -.00000930  00000-0 -40328-4 0  9993,2 53926  53.2192  66.5663 0002114  99.4009 260.7222 15.08840349 78996,6917.879,95.438,541.207,538.282,0.0
53926.0,STARLINK-5014,PAYLOAD,2024-02-21 08:09:27,15.08838905,0.0001979,53.2184,63.8895,101.5817,258.5398,6.9366e-05,8.16e-06,0.0,0 STARLINK-5014,1 53926U 22119AS  24052.33989813  .00000816  00000-0  69366-4 0  9996,2 53926  53.2184  63.8895 0001979 101.5817 258.5398 15.08838905 79089,6917.884,95.438,541.118,538.38,0.0
53926.0,STARLINK-5014,PAYLOAD,2024-02-21 17:41:46,15.0883939,0.0001898,53.2179,62.1047,92.2048,267.9162,6.5067e-05,7.48e-06,0.0,0 STARLINK-5014,1 53926U 22119AS  24052.73733851  .00000748  00000-0  65067-4 0  9997,2 53926  53.2179  62.1047 0001898  92.2048 267.9162 15.08839390 78717,6917.882,95.438,541.06,538.434,0.0
53926.0,STARLINK-5014,PAYLOAD,2024-02-22 09:35:37,15.08838287,0.0002091,53.2187,59.1311,94.9133,265.2098,9.0802e-05,1.157e-05,0.0,0 STARLINK-5014,1 53926U 22119AS  24053.39974027  .00001157  00000-0  90802-4 0  9992,2 53926  53.2187  59.1311 0002091  94.9133 265.2098 15.08838287 79248,6917.886,95.438,541.197,538.304,0.0
53926.0,STARLINK-5014,PAYLOAD,2024-02-22 17:32:33,15.08840773,0.0001947,53.2179,57.643,89.731,270.3905,-4.8406e-06,-3.65e-06,0.0,0 STARLINK-5014,1 53926U 22119AS  24053.73094115 -.00000365  00000-0 -48406-5 0  9997,2 53926  53.2179  57.6430 0001947  89.7310 270.3905 15.08840773 79294,6917.878,95.438,541.09,538.396,0.0
53926.0,STARLINK-5014,PAYLOAD,2024-02-23 06:15:38,15.08841433,0.0001841,53.2181,55.2633,92.0595,268.0608,6.8408e-05,8.01e-06,0.0,0 STARLINK-5014,1 53926U 22119AS  24054.26085876  .00000801  00000-0  68408-4 0  9996,2 53926  53.2181  55.2633 0001841  92.0595 268.0608 15.08841433 78940,6917.876,95.437,541.015,538.467,0.0
53926.0,STARLINK-5014,PAYLOAD,2024-02-23 17:23:20,15.08842116,0.0001776,53.217,53.1836,91.1912,268.9284,4.7298e-05,4.65e-06,0.0,0 STARLINK-5014,1 53926U 22119AS  24054.72453860  .00000465  00000-0  47298-4 0  9999,2 53926  53.2170  53.1836 0001776  91.1912 268.9284 15.08842116 79444,6917.874,95.437,540.968,538.51,0.0
53926.0,STARLINK-5014,PAYLOAD,2024-02-24 09:17:11,15.088443,0.0001985,53.219,50.2087,92.9179,267.2041,4.9319e-05,4.97e-06,0.0,0 STARLINK-5014,1 53926U 22119AS  24055.38693812  .00000497  00000-0  49319-4 0  9996,2 53926  53.2190  50.2087 0001985  92.9179 267.2041 15.08844300 79112,6917.867,95.437,541.105,538.359,0.0
53926.0,STARLINK-5014,PAYLOAD,2024-02-24 17:14:07,15.08839505,0.000192,53.219,48.7214,94.462,265.6591,4.5148e-05,4.3e-06,0.0,0 STARLINK-5014,1 53926U 22119AS  24055.71814090  .00000430  00000-0  45148-4 0  9999,2 53926  53.2190  48.7214 0001920  94.4620 265.6591 15.08839505 79598,6917.882,95.438,541.075,538.419,0.0
53926.0,STARLINK-5014,PAYLOAD,2024-02-25 09:07:57,15.0885837,0.0001961,53.2185,45.7478,92.8567,267.2649,-1.856e-05,-5.84e-06,0.0,0 STARLINK-5014,1 53926U 22119AS  24056.38052936 -.00000584  00000-0 -18560-4 0  9996,2 53926  53.2185  45.7478 0001961  92.8567 267.2649 15.08858370 79265,6917.824,95.436,541.046,538.333,0.0
53926.0,STARLINK-5014,PAYLOAD,2024-02-25 23:26:26,15.08839702,0.0001956,53.2183,43.0704,94.9951,265.1264,3.9057e-05,3.33e-06,0.0,0 STARLINK-5014,1 53926U 22119AS  24056.97669865  .00000333  00000-0  39057-4 0  9990,2 53926  53.2183  43.0704 0001956  94.9951 265.1264 15.08839702 79785,6917.881,95.438,541.099,538.393,0.0
53926.0,STARLINK-5014,PAYLOAD,2024-02-26 04:12:36,15.08840687,0.0001898,53.2188,42.1813,90.5881,269.5328,5.8723e-05,6.47e-06,0.0,0 STARLINK-5014,1 53926U 22119AS  24057.17541755  .00000647  00000-0  58723-4 0  9999,2 53926  53.2188  42.1813 0001898  90.5881 269.5328 15.08840687 79389,6917.878,95.438,541.056,538.43,0.0
53926.0,STARLINK-5014,PAYLOAD,2024-02-26 05:47:59,15.08844454,0.0001887,53.2186,41.8834,92.1088,268.012,2.7026e-05,1.42e-06,0.0,0 STARLINK-5014,1 53926U 22119AS  24057.24165602  .00000142  00000-0  27026-4 0  9992,2 53926  53.2186  41.8834 0001887  92.1088 268.0120 15.08844454 79820,6917.867,95.437,541.037,538.426,0.0
53926.0,STARLINK-5014,PAYLOAD,2024-02-26 23:17:14,15.08837413,0.0002119,53.2195,38.6133,86.568,273.5554,-4.1548e-05,-9.49e-06,0.0,0 STARLINK-5014,1 53926U 22119AS  24057.97030434 -.00000949  00000-0 -41548-4 0  9998,2 53926  53.2195  38.6133 0002119  86.5680 273.5554 15.08837413 79931,6917.888,95.438,541.219,538.287,0.0
53926.0,STARLINK-5014,PAYLOAD,2024-02-27 04:03:23,15.08835285,0.0001947,53.2187,37.7172,99.2505,260.8707,-6.9426e-05,-1.393e-05,0.0,0 STARLINK-5014,1 53926U 22119AS  24058.16902576 -.00001393  00000-0 -69426-4 0  9994,2 53926  53.2187  37.7172 0001947  99.2505 260.8707 15.08835285 79530,6917.895,95.438,541.107,538.413,0.0
53926.0,STARLINK-5014,PAYLOAD,2024-02-27 08:49:34,15.08789161,0.0002214,53.2187,36.8253,95.2656,264.8588,0.00052802,8.114e-05,0.0,0 STARLINK-5014,1 53926U 22119AS  24058.36775710  .00008114  00000-0  52802-3 0  9999,2 53926  53.2187  36.8253 0002214  95.2656 264.8588 15.08789161 79566,6918.036,95.441,541.432,538.369,0.0
53926.0,STARLINK-5014,PAYLOAD,2024-02-27 15:11:05,15.08836202,0.0001906,53.2189,35.639,92.7038,267.4173,-7.0317e-05,-1.407e-05,0.0,0 STARLINK-5014,1 53926U 22119AS  24058.63270646 -.00001407  00000-0 -70317-4 0  9999,2 53926  53.2189  35.6390 0001906  92.7038 267.4173 15.08836202 79603,6917.892,95.438,541.076,538.438,0.0
53926.0,STARLINK-5014,PAYLOAD,2024-02-28 05:29:33,15.0883659,0.0001805,53.219,32.9661,101.1092,259.0103,2.4734e-05,1.06e-06,0.0,0 STARLINK-5014,1 53926U 22119AS  24059.22886561  .00000106  00000-0  24734-4 0  9999,2 53926  53.2190  32.9661 0001805 101.1092 259.0103 15.08836590 80128,6917.891,95.438,541.004,538.507,0.0
53926.0,STARLINK-5014,PAYLOAD,2024-02-29 03:44:58,15.08826869,0.0001629,53.2179,28.8008,93.8001,266.3177,0.00017859,2.554e-05,0.0,0 STARLINK-5014,1 53926U 22119AS  24060.15622989  .00002554  00000-0  17859-3 0  9993,2 53926  53.2179  28.8008 0001629  93.8001 266.3177 15.08826869 79831,6917.921,95.438,540.912,538.659,0.0
53926.0,STARLINK-5014,PAYLOAD,2024-02-29 06:55:44,15.08838266,0.0001769,53.2189,28.2082,98.263,261.8562,0.00011584,1.556e-05,0.0,0 STARLINK-5014,1 53926U 22119AS  24060.28870576  .00001556  00000-0  11584-3 0  9994,2 53926  53.2189  28.2082 0001769  98.2630 261.8562 15.08838266 79854,6917.886,95.438,540.974,538.527,0.0
53926.0,STARLINK-5014,PAYLOAD,2024-02-29 14:52:39,15.08840767,0.000175,53.2191,26.7204,87.1549,272.9644,5.6162e-05,6.06e-06,0.0,0 STARLINK-5014,1 53926U 22119AS  24060.61990641  .00000606  00000-0  56162-4 0  9994,2 53926  53.2191  26.7204 0001750  87.1549 272.9644 15.08840767 80330,6917.878,95.438,540.954,538.532,0.0
53926.0,STARLINK-5014,PAYLOAD,2024-02-29 21:14:12,15.08832905,0.0001479,53.2194,25.5321,90.9079,269.2083,9.8936e-05,1.287e-05,0.0,0 STARLINK-5014,1 53926U 22119AS  24060.88487007  .00001287  00000-0  98936-4 0  9991,2 53926  53.2194  25.5321 0001479  90.9079 269.2083 15.08832905 80373,6917.902,95.438,540.79,538.744,0.0
53926.0,STARLINK-5014,PAYLOAD,2024-03-01 06:46:30,15.08846915,0.0001779,53.2188,23.748,91.9189,268.2007,0.00010079,1.317e-05,0.0,0 STARLINK-5014,1 53926U 22119AS  24061.28230201  .00001317  00000-0  10079-3 0  9993,2 53926  53.2188  23.7480 0001779  91.9189 268.2007 15.08846915 80436,6917.859,95.437,540.955,538.494,0.0
53926.0,STARLINK-5014,PAYLOAD,2024-03-01 14:43:26,15.08846355,0.0001639,53.2189,22.257,87.1393,272.9787,-3.4597e-05,-8.39e-06,0.0,0 STARLINK-5014,1 53926U 22119AS  24061.61350344 -.00000839  00000-0 -34597-4 0  9993,2 53926  53.2189  22.2570 0001639  87.1393 272.9787 15.08846355 80053,6917.861,95.437,540.86,538.592,0.0
53926.0,STARLINK-5014,PAYLOAD,2024-03-02 03:26:31,15.08849042,0.000198,53.2201,19.8794,86.4325,273.6893,5.8592e-05,6.45e-06,0.0,0 STARLINK-5014,1 53926U 22119AS  24062.14342086  .00000645  00000-0  58592-4 0  9990,2 53926  53.2201  19.8794 0001980  86.4325 273.6893 15.08849042 80562,6917.853,95.437,541.087,538.348,0.0
53926.0,STARLINK-5014,PAYLOAD,2024-03-03 03:17:19,15.08832248,0.0001296,53.2186,15.4204,79.6977,280.4161,8.5973e-05,1.08e-05,0.0,0 STARLINK-5014,1 53926U 22119AS  24063.13702698  .00001080  00000-0  85973-4 0  9996,2 53926  53.2186  15.4204 0001296  79.6977 280.4161 15.08832248 80282,6917.904,95.438,540.666,538.873,0.0
53926.0,STARLINK-5014,PAYLOAD,2024-03-03 20:46:33,15.0884196,0.0001765,53.2191,12.1498,78.0175,282.1015,-5.8163e-05,-1.214e-05,0.0,0 STARLINK-5014,1 53926U 22119AS  24063.86566628 -.00001214  00000-0 -58163-4 0  9999,2 53926  53.2191  12.1498 0001765  78.0175 282.1015 15.08841960 80829,6917.874,95.437,540.96,538.518,0.0
53926.0,STARLINK-5014,PAYLOAD,2024-03-04 01:32:41,15.08853148,0.0001833,53.22,11.2557,96.6451,263.475,0.00012157,1.648e-05,0.0,0 STARLINK-5014,1 53926U 22119AS  24064.06437205  .00001648  00000-0  12157-3 0  9991,2 53926  53.2200  11.2557 0001833  96.6451 263.4750 15.08853148 80420,6917.84,95.437,540.973,538.437,0.0
53926.0,STARLINK-5014,PAYLOAD,2024-03-04 06:18:50,15.088664,0.0001895,53.2198,10.3609,88.9389,271.182,9.658e-05,1.25e-05,0.0,0 STARLINK-5014,1 53926U 22119AS  24064.26308483  .00001250  00000-0  96580-4 0  9990,2 53926  53.2198  10.3609 0001895  88.9389 271.1820 15.08866400 80458,6917.8,95.436,540.976,538.354,0.0
53926.0,STARLINK-5014,PAYLOAD,2024-03-04 19:01:57,15.08825675,0.0001511,53.2197,7.987,78.2575,281.8587,-3.6918e-05,-8.75e-06,0.0,0 STARLINK-5014,1 53926U 22119AS  24064.79303110 -.00000875  00000-0 -36918-4 0  9993,2 53926  53.2197   7.9870 0001511  78.2575 281.8587 15.08825675 80539,6917.924,95.438,540.834,538.744,0.0
